[{"OBJECT_NAME":"FLOCK 4H-29","OBJECT_ID":"2025-276BU","EPOCH":"2026-03-09T18:19:22.672704","MEAN_MOTION":15.1849364,"ECCENTRICITY":0.00036497,"INCLINATION":97.4237,"RA_OF_ASC_NODE":143.9355,"ARG_OF_PERICENTER":34.6644,"MEAN_ANOMALY":325.4828,"EPHEMERIS_TYPE":0,"CLASSIFICATION_TYPE":"U","NORAD_CAT_ID":66732,"ELEMENT_SET_NO":999,"REV_AT_EPOCH":1532,"BSTAR":0.00039233753,"MEAN_MOTION_DOT":8.028e-5,"MEAN_MOTION_DDOT":0},{"OBJECT_NAME":"CZ-6A DEB","OBJECT_ID":"2022-151EM","EPOCH":"2026-03-09T21:12:10.844640","MEAN_MOTION":15.1479521,"ECCENTRICITY":0.00732342,"INCLINATION":98.809,"RA_OF_ASC_NODE":212.6624,"ARG_OF_PERICENTER":10.5605,"MEAN_ANOMALY":349.714,"EPHEMERIS_TYPE":0,"CLASSIFICATION_TYPE":"U","NORAD_CAT_ID":54413,"ELEMENT_SET_NO":999,"REV_AT_EPOCH":17915,"BSTAR":0.0020661814,"MEAN_MOTION_DOT":0.00041137,"MEAN_MOTION_DDOT":0}]
